{
  "type": "FeatureCollection",
  "features": [
    {
      "type": "Feature",
      "properties": {
        "norad_id": 63772,
        "name": "BIOMASS",
        "group": "resource",
        "lat": -38.905838008469686,
        "lon": 169.52903209954889,
        "alt_km": 675.817822303824,
        "timestamp": "2025-12-03T19:33:06.637614+00:00",
        "meta_object_name": "BIOMASS",
        "meta_object_id": "2025-090A",
        "meta_epoch": "2025-12-03T11:32:56.497344",
        "meta_mean_motion": 14.67534999,
        "meta_eccentricity": 0.0001221,
        "meta_inclination": 98.0704,
        "meta_ra_of_asc_node": 162.625,
        "meta_arg_of_pericenter": 79.869,
        "meta_mean_anomaly": 280.2652,
        "meta_ephemeris_type": 0,
        "meta_classification_type": "U",
        "meta_norad_cat_id": 63772,
        "meta_element_set_no": 999,
        "meta_rev_at_epoch": 3198,
        "meta_bstar": 0.00037434,
        "meta_mean_motion_dot": 2.075e-05,
        "meta_mean_motion_ddot": 0,
        "tle_line1": "1 63772U 25090A   25337.48120946  .00002075  00000+0  37434-3 0  9992",
        "tle_line2": "2 63772  98.0704 162.6250 0001221  79.8690 280.2652 14.67534999 31985"
      },
      "geometry": {
        "type": "Point",
        "coordinates": [
          169.52903209954889,
          -38.905838008469686
        ]
      }
    },
    {
      "type": "Feature",
      "properties": {
        "norad_id": 64694,
        "name": "GOSAT-GW (IBUKI GW)",
        "group": "resource",
        "lat": 10.214088996808403,
        "lon": 94.94803502325482,
        "alt_km": 670.5349576449271,
        "timestamp": "2025-12-03T19:33:06.637625+00:00",
        "meta_object_name": "GOSAT-GW (IBUKI GW)",
        "meta_object_id": "2025-141A",
        "meta_epoch": "2025-11-30T05:41:32.267328",
        "meta_mean_motion": 14.67567435,
        "meta_eccentricity": 0.00014369,
        "meta_inclination": 98.0401,
        "meta_ra_of_asc_node": 269.9775,
        "meta_arg_of_pericenter": 82.921,
        "meta_mean_anomaly": 277.2158,
        "meta_ephemeris_type": 0,
        "meta_classification_type": "U",
        "meta_norad_cat_id": 64694,
        "meta_element_set_no": 999,
        "meta_rev_at_epoch": 2266,
        "meta_bstar": 0.00019762357,
        "meta_mean_motion_dot": 1.074e-05,
        "meta_mean_motion_ddot": 0,
        "tle_line1": "1 64694U 25141A   25334.23717902  .00001074  00000+0  19762-3 0  9999",
        "tle_line2": "2 64694  98.0401 269.9775 0001436  82.9210 277.2158 14.67567435 22660"
      },
      "geometry": {
        "type": "Point",
        "coordinates": [
          94.94803502325482,
          10.214088996808403
        ]
      }
    },
    {
      "type": "Feature",
      "properties": {
        "norad_id": 64876,
        "name": "IONOSFERA-M 3",
        "group": "resource",
        "lat": -31.176615506572855,
        "lon": 114.69457705571034,
        "alt_km": 827.7513545139791,
        "timestamp": "2025-12-03T19:33:06.637635+00:00",
        "meta_object_name": "IONOSFERA-M 3",
        "meta_object_id": "2025-155A",
        "meta_epoch": "2025-12-03T11:48:09.730656",
        "meta_mean_motion": 14.2143721,
        "meta_eccentricity": 0.0002393,
        "meta_inclination": 98.577,
        "meta_ra_of_asc_node": 299.6203,
        "meta_arg_of_pericenter": 74.4493,
        "meta_mean_anomaly": 285.6949,
        "meta_ephemeris_type": 0,
        "meta_classification_type": "U",
        "meta_norad_cat_id": 64876,
        "meta_element_set_no": 999,
        "meta_rev_at_epoch": 1860,
        "meta_bstar": 7.2426e-05,
        "meta_mean_motion_dot": 1.16e-06,
        "meta_mean_motion_ddot": 0,
        "tle_line1": "1 64876U 25155A   25337.49177929  .00000116  00000+0  72426-4 0  9999",
        "tle_line2": "2 64876  98.5770 299.6203 0002393  74.4493 285.6949 14.21437210 18601"
      },
      "geometry": {
        "type": "Point",
        "coordinates": [
          114.69457705571034,
          -31.176615506572855
        ]
      }
    },
    {
      "type": "Feature",
      "properties": {
        "norad_id": 64877,
        "name": "IONOSFERA-M 4",
        "group": "resource",
        "lat": 31.560714216002467,
        "lon": -65.46552745190272,
        "alt_km": 817.7007537943591,
        "timestamp": "2025-12-03T19:33:06.637645+00:00",
        "meta_object_name": "IONOSFERA-M 4",
        "meta_object_id": "2025-155B",
        "meta_epoch": "2025-12-03T12:38:40.026624",
        "meta_mean_motion": 14.21438323,
        "meta_eccentricity": 0.0001742,
        "meta_inclination": 98.5768,
        "meta_ra_of_asc_node": 299.574,
        "meta_arg_of_pericenter": 72.9475,
        "meta_mean_anomaly": 287.1894,
        "meta_ephemeris_type": 0,
        "meta_classification_type": "U",
        "meta_norad_cat_id": 64877,
        "meta_element_set_no": 999,
        "meta_rev_at_epoch": 1860,
        "meta_bstar": 7.7585e-05,
        "meta_mean_motion_dot": 1.27e-06,
        "meta_mean_motion_ddot": 0,
        "tle_line1": "1 64877U 25155B   25337.52685216  .00000127  00000+0  77585-4 0  9990",
        "tle_line2": "2 64877  98.5768 299.5740 0001742  72.9475 287.1894 14.21438323 18606"
      },
      "geometry": {
        "type": "Point",
        "coordinates": [
          -65.46552745190272,
          31.560714216002467
        ]
      }
    },
    {
      "type": "Feature",
      "properties": {
        "norad_id": 64899,
        "name": "MICROCARB",
        "group": "resource",
        "lat": 3.1328063057632125,
        "lon": 52.861724364508284,
        "alt_km": 668.5843033714873,
        "timestamp": "2025-12-03T19:33:06.637655+00:00",
        "meta_object_name": "MICROCARB",
        "meta_object_id": "2025-156A",
        "meta_epoch": "2025-12-03T04:51:17.943264",
        "meta_mean_motion": 14.72030926,
        "meta_eccentricity": 0.0016515,
        "meta_inclination": 98.0035,
        "meta_ra_of_asc_node": 52.7004,
        "meta_arg_of_pericenter": 174.3539,
        "meta_mean_anomaly": 185.7857,
        "meta_ephemeris_type": 0,
        "meta_classification_type": "U",
        "meta_norad_cat_id": 64899,
        "meta_element_set_no": 999,
        "meta_rev_at_epoch": 1913,
        "meta_bstar": 0.00017718925,
        "meta_mean_motion_dot": 1.065e-05,
        "meta_mean_motion_ddot": 0,
        "tle_line1": "1 64899U 25156A   25337.20229101  .00001065  00000+0  17719-3 0  9991",
        "tle_line2": "2 64899  98.0035  52.7004 0016515 174.3539 185.7857 14.72030926 19130"
      },
      "geometry": {
        "type": "Point",
        "coordinates": [
          52.861724364508284,
          3.1328063057632125
        ]
      }
    },
    {
      "type": "Feature",
      "properties": {
        "norad_id": 64900,
        "name": "CO3D 3",
        "group": "resource",
        "lat": 12.447652123858651,
        "lon": -124.96221680454187,
        "alt_km": 444.7691908518782,
        "timestamp": "2025-12-03T19:33:06.637665+00:00",
        "meta_object_name": "CO3D 3",
        "meta_object_id": "2025-156B",
        "meta_epoch": "2025-11-29T13:08:11.122944",
        "meta_mean_motion": 15.11495615,
        "meta_eccentricity": 0.01368669,
        "meta_inclination": 97.6723,
        "meta_ra_of_asc_node": 49.0485,
        "meta_arg_of_pericenter": 160.1625,
        "meta_mean_anomaly": 200.5002,
        "meta_ephemeris_type": 0,
        "meta_classification_type": "U",
        "meta_norad_cat_id": 64900,
        "meta_element_set_no": 999,
        "meta_rev_at_epoch": 1920,
        "meta_bstar": 0.00046350794,
        "meta_mean_motion_dot": 9.779e-05,
        "meta_mean_motion_ddot": 0,
        "tle_line1": "1 64900U 25156B   25333.54735096  .00009779  00000+0  46351-3 0  9996",
        "tle_line2": "2 64900  97.6723  49.0485 0136866 160.1625 200.5002 15.11495615 19205"
      },
      "geometry": {
        "type": "Point",
        "coordinates": [
          -124.96221680454187,
          12.447652123858651
        ]
      }
    },
    {
      "type": "Feature",
      "properties": {
        "norad_id": 64901,
        "name": "CO3D 4",
        "group": "resource",
        "lat": -59.76096590949905,
        "lon": 67.25660074763302,
        "alt_km": 512.0914258755192,
        "timestamp": "2025-12-03T19:33:06.637675+00:00",
        "meta_object_name": "CO3D 4",
        "meta_object_id": "2025-156C",
        "meta_epoch": "2025-12-01T18:50:45.474720",
        "meta_mean_motion": 15.20204195,
        "meta_eccentricity": 0.00012108,
        "meta_inclination": 97.4354,
        "meta_ra_of_asc_node": 52.3098,
        "meta_arg_of_pericenter": 238.3057,
        "meta_mean_anomaly": 121.806,
        "meta_ephemeris_type": 0,
        "meta_classification_type": "U",
        "meta_norad_cat_id": 64901,
        "meta_element_set_no": 999,
        "meta_rev_at_epoch": 1954,
        "meta_bstar": -1.4420799e-05,
        "meta_mean_motion_dot": -3.8e-06,
        "meta_mean_motion_ddot": 0,
        "tle_line1": "1 64901U 25156C   25335.78524855 -.00000380  00000+0 -14421-4 0  9999",
        "tle_line2": "2 64901  97.4354  52.3098 0001210 238.3057 121.8060 15.20204195 19549"
      },
      "geometry": {
        "type": "Point",
        "coordinates": [
          67.25660074763302,
          -59.76096590949905
        ]
      }
    }
  ]
}